{
  "norad_id": 55453,
  "name": "STARLINK-5684",
  "history": [
    {
      "epoch": "2026-03-28T22:00:01.999584Z",
      "apogee_km": 489.2235497697111,
      "perigee_km": 487.2563327760363,
      "latitude_deg": 27.269635411662826,
      "longitude_deg": -149.9662384481699,
      "height_km": 489.1826524982329,
      "semi_major_axis_km": 6866.376941272873,
      "eccentricity": 0.00014325,
      "inclination_deg": 43.0,
      "raan_deg": 219.7201,
      "arg_perigee_deg": 280.4857,
      "mean_anomaly_deg": 217.4926,
      "mean_motion_rev_day": 15.25848097
    },
    {
      "epoch": "2026-03-29T04:00:01.999584Z",
      "apogee_km": 487.5761835325302,
      "perigee_km": 485.0322216228542,
      "latitude_deg": 40.83762790335321,
      "longitude_deg": 38.90999180021238,
      "height_km": 490.1156496520721,
      "semi_major_axis_km": 6864.441202577692,
      "eccentricity": 0.0001853,
      "inclination_deg": 42.9999,
      "raan_deg": 218.3103,
      "arg_perigee_deg": 276.5821,
      "mean_anomaly_deg": 156.3262,
      "mean_motion_rev_day": 15.26493565
    },
    {
      "epoch": "2026-03-30T04:00:01.999584Z",
      "apogee_km": 487.0152130613624,
      "perigee_km": 484.2697012784938,
      "latitude_deg": 3.2677720901798692,
      "longitude_deg": 141.60956606794667,
      "height_km": 485.17791975672543,
      "semi_major_axis_km": 6863.779457169928,
      "eccentricity": 0.0002,
      "inclination_deg": 43.0005,
      "raan_deg": 212.671,
      "arg_perigee_deg": 270.3789,
      "mean_anomaly_deg": 264.7932,
      "mean_motion_rev_day": 15.26714327
    },
    {
      "epoch": "2026-03-30T06:00:02.000160Z",
      "apogee_km": 486.9894519920881,
      "perigee_km": 484.3637687335804,
      "latitude_deg": -43.04537189133173,
      "longitude_deg": -150.36123340010207,
      "height_km": 497.67802724876526,
      "semi_major_axis_km": 6863.813610362834,
      "eccentricity": 0.00019127,
      "inclination_deg": 43.0003,
      "raan_deg": 212.201,
      "arg_perigee_deg": 266.1369,
      "mean_anomaly_deg": 7.5949,
      "mean_motion_rev_day": 15.26702932
    },
    {
      "epoch": "2026-03-30T14:00:03.000384Z",
      "apogee_km": 486.89288020740514,
      "perigee_km": 484.30072249998557,
      "latitude_deg": -32.67420992949921,
      "longitude_deg": 129.1842840740965,
      "height_km": 493.60280125157095,
      "semi_major_axis_km": 6863.7338013536955,
      "eccentricity": 0.00018883,
      "inclination_deg": 43.0004,
      "raan_deg": 210.3239,
      "arg_perigee_deg": 273.0216,
      "mean_anomaly_deg": 34.9868,
      "mean_motion_rev_day": 15.2672956
    },
    {
      "epoch": "2026-03-30T22:00:00.999936Z",
      "apogee_km": 486.96493073327656,
      "perigee_km": 484.13160145543316,
      "latitude_deg": -12.206388981314127,
      "longitude_deg": 36.79883049120451,
      "height_km": 487.12975076048224,
      "semi_major_axis_km": 6863.685266094355,
      "eccentricity": 0.0002064,
      "inclination_deg": 43.0007,
      "raan_deg": 208.4424,
      "arg_perigee_deg": 275.98,
      "mean_anomaly_deg": 66.125,
      "mean_motion_rev_day": 15.26745754
    },
    {
      "epoch": "2026-03-31T20:00:01.999008Z",
      "apogee_km": 486.92384525485795,
      "perigee_km": 484.26209077326166,
      "latitude_deg": -9.351152018616107,
      "longitude_deg": 63.94525285921957,
      "height_km": 486.56304008043827,
      "semi_major_axis_km": 6863.7299680140595,
      "eccentricity": 0.0001939,
      "inclination_deg": 43.0011,
      "raan_deg": 203.2727,
      "arg_perigee_deg": 277.9734,
      "mean_anomaly_deg": 68.3871,
      "mean_motion_rev_day": 15.26730839
    },
    {
      "epoch": "2026-04-01T20:00:01.999008Z",
      "apogee_km": 486.95228921134367,
      "perigee_km": 484.2328795500125,
      "latitude_deg": 43.15279383740549,
      "longitude_deg": 156.19775870328945,
      "height_km": 490.0802729722424,
      "semi_major_axis_km": 6863.729584380678,
      "eccentricity": 0.0001981,
      "inclination_deg": 43.0012,
      "raan_deg": 197.6322,
      "arg_perigee_deg": 279.7117,
      "mean_anomaly_deg": 169.3815,
      "mean_motion_rev_day": 15.26730967
    },
    {
      "epoch": "2026-04-02T06:36:11.071296Z",
      "apogee_km": 486.797131466471,
      "perigee_km": 484.2740454229588,
      "latitude_deg": -1.387751568570206e-06,
      "longitude_deg": -94.53346690454347,
      "height_km": 485.23992716007183,
      "semi_major_axis_km": 6863.672588444714,
      "eccentricity": 0.0001838,
      "inclination_deg": 43.0009,
      "raan_deg": 195.1388,
      "arg_perigee_deg": 273.3129,
      "mean_anomaly_deg": 86.7512,
      "mean_motion_rev_day": 15.26749984
    },
    {
      "epoch": "2026-04-03T15:33:57.222144Z",
      "apogee_km": 485.87653061069796,
      "perigee_km": 480.19273602965586,
      "latitude_deg": -3.566269442049843e-05,
      "longitude_deg": 121.91866690106882,
      "height_km": 480.6644569115631,
      "semi_major_axis_km": 6861.171633320177,
      "eccentricity": 0.0004142,
      "inclination_deg": 43.0014,
      "raan_deg": 187.387,
      "arg_perigee_deg": 319.1077,
      "mean_anomaly_deg": 40.9463,
      "mean_motion_rev_day": 15.2758483
    },
    {
      "epoch": "2026-04-04T15:07:39.578880Z",
      "apogee_km": 486.7095564389483,
      "perigee_km": 484.43355068258734,
      "latitude_deg": -3.684858630016763e-05,
      "longitude_deg": 121.99323127420492,
      "height_km": 485.2909959806126,
      "semi_major_axis_km": 6863.7085535607675,
      "eccentricity": 0.0001658,
      "inclination_deg": 43.0009,
      "raan_deg": 181.8557,
      "arg_perigee_deg": 272.9044,
      "mean_anomaly_deg": 87.1617,
      "mean_motion_rev_day": 15.26737984
    }
  ]
}